NORAD_CAT_ID,OBJECT_NAME,OBJECT_TYPE,EPOCH,MEAN_MOTION,ECCENTRICITY,INCLINATION,RA_OF_ASC_NODE,ARG_OF_PERICENTER,MEAN_ANOMALY,BSTAR,MEAN_MOTION_DOT,MEAN_MOTION_DDOT,TLE_LINE0,TLE_LINE1,TLE_LINE2,SEMIMAJOR_AXIS,PERIOD,APOGEE,PERIGEE,DECAYED
55284.0,STARLINK-5337,PAYLOAD,2024-06-15 19:55:12,14.98332517,0.0003164,69.9989,197.4246,271.4878,88.5919,-2.0139e-05,-3.33e-06,0.0,0 STARLINK-5337,1 55284U 23010R   24167.83001131 -.00000333  00000-0 -20139-4 0  9997,2 55284  69.9989 197.4246 0003164 271.4878  88.5919 14.98332517 78132,6950.185,96.107,574.249,569.851,0.0
55284.0,STARLINK-5337,PAYLOAD,2024-06-16 11:56:33,14.98332895,0.0003041,69.9987,195.7404,269.433,90.6481,-9.2344e-06,-2.03e-06,0.0,0 STARLINK-5337,1 55284U 23010R   24168.49760962 -.00000203  00000-0 -92344-5 0  9998,2 55284  69.9987 195.7404 0003041 269.4330  90.6481 14.98332895 78239,6950.184,96.107,574.162,569.935,0.0
55284.0,STARLINK-5337,PAYLOAD,2024-06-17 18:23:06,14.98339074,0.0002892,69.9986,192.5423,271.5153,88.5674,-0.0003204,-3.915e-05,0.0,0 STARLINK-5337,1 55284U 23010R   24169.76604942 -.00003915  00000-0 -32040-3 0  9992,2 55284  69.9986 192.5423 0002892 271.5153  88.5674 14.98339074 78421,6950.165,96.106,574.04,570.02,0.0
55284.0,STARLINK-5337,PAYLOAD,2024-06-18 05:36:03,14.98322198,0.0002761,69.9984,191.3641,271.3041,88.7801,2.9219e-05,2.56e-06,0.0,0 STARLINK-5337,1 55284U 23010R   24170.23337667  .00000256  00000-0  29219-4 0  9991,2 55284  69.9984 191.3641 0002761 271.3041  88.7801 14.98322198 78194,6950.217,96.107,574.001,570.163,0.0
55284.0,STARLINK-5337,PAYLOAD,2024-06-18 10:24:28,14.9832271,0.0002769,69.9985,190.8588,272.66,87.4242,2.8128e-05,2.43e-06,0.0,0 STARLINK-5337,1 55284U 23010R   24170.43365753  .00000243  00000-0  28128-4 0  9994,2 55284  69.9985 190.8588 0002769 272.6600  87.4242 14.98322710 78524,6950.215,96.107,574.005,570.156,0.0
55284.0,STARLINK-5337,PAYLOAD,2024-06-18 18:25:08,14.98323557,0.0002772,69.9986,190.0171,273.3904,86.6938,5.1141e-05,5.17e-06,0.0,0 STARLINK-5337,1 55284U 23010R   24170.76745795  .00000517  00000-0  51141-4 0  9993,2 55284  69.9986 190.0171 0002772 273.3904  86.6938 14.98323557 78572,6950.213,96.107,574.004,570.151,0.0
55284.0,STARLINK-5337,PAYLOAD,2024-06-19 05:38:04,14.9832255,0.000286,69.9983,188.839,273.3689,86.7143,0.00010429,1.151e-05,0.0,0 STARLINK-5337,1 55284U 23010R   24171.23477947  .00001151  00000-0  10429-3 0  9995,2 55284  69.9983 188.8390 0002860 273.3689  86.7143 14.98322550 78341,6950.216,96.107,574.069,570.093,0.0
55284.0,STARLINK-5337,PAYLOAD,2024-06-19 10:26:29,14.98323661,0.0002852,69.9984,188.3342,272.4799,87.6033,0.00011107,1.232e-05,0.0,0 STARLINK-5337,1 55284U 23010R   24171.43505962  .00001232  00000-0  11107-3 0  9990,2 55284  69.9984 188.3342 0002852 272.4799  87.6033 14.98323661 78675,6950.212,96.107,574.06,570.095,0.0
55284.0,STARLINK-5337,PAYLOAD,2024-06-20 05:40:05,14.98328406,0.0002861,69.9984,186.3144,272.3911,87.6921,0.00011313,1.257e-05,0.0,0 STARLINK-5337,1 55284U 23010R   24172.23617884  .00001257  00000-0  11313-3 0  9992,2 55284  69.9984 186.3144 0002861 272.3911  87.6921 14.98328406 78496,6950.198,96.107,574.051,570.074,0.0
55284.0,STARLINK-5337,PAYLOAD,2024-06-20 10:28:29,14.98329797,0.0002866,69.9984,185.8095,272.5437,87.5394,0.00011515,1.281e-05,0.0,0 STARLINK-5337,1 55284U 23010R   24172.43645822  .00001281  00000-0  11515-3 0  9998,2 55284  69.9984 185.8095 0002866 272.5437  87.5394 14.98329797 78829,6950.194,96.107,574.05,570.067,0.0
55284.0,STARLINK-5337,PAYLOAD,2024-06-21 10:30:30,14.983317,0.0002867,69.9986,183.2847,272.5383,87.5448,7.2892e-05,7.77e-06,0.0,0 STARLINK-5337,1 55284U 23010R   24173.43785818  .00000777  00000-0  72892-4 0  9994,2 55284  69.9986 183.2847 0002867 272.5383  87.5448 14.98331700 78679,6950.188,96.107,574.045,570.06,0.0
55284.0,STARLINK-5337,PAYLOAD,2024-06-22 10:32:31,14.98331302,0.0002857,69.9989,180.7599,272.8782,87.205,1.9737e-05,1.43e-06,0.0,0 STARLINK-5337,1 55284U 23010R   24174.43925901  .00000143  00000-0  19737-4 0  9990,2 55284  69.9989 180.7599 0002857 272.8782  87.2050 14.98331302 78824,6950.189,96.107,574.04,570.068,0.0
55284.0,STARLINK-5337,PAYLOAD,2024-06-23 10:34:32,14.98333982,0.0002886,69.9992,178.235,271.8805,88.2023,6.7262e-05,7.1e-06,0.0,0 STARLINK-5337,1 55284U 23010R   24175.44065471  .00000710  00000-0  67262-4 0  9995,2 55284  69.9992 178.2350 0002886 271.8805  88.2023 14.98333982 78975,6950.181,96.107,574.051,570.04,0.0
55284.0,STARLINK-5337,PAYLOAD,2024-06-24 09:00:25,14.98333637,0.0002912,69.9993,175.8786,271.3466,88.736,8.0154e-05,8.64e-06,0.0,0 STARLINK-5337,1 55284U 23010R   24176.37529269  .00000864  00000-0  80154-4 0  9993,2 55284  69.9993 175.8786 0002912 271.3466  88.7360 14.98333637 79416,6950.182,96.107,574.071,570.023,0.0
55284.0,STARLINK-5337,PAYLOAD,2024-06-25 04:14:02,14.98331471,0.0002855,69.9993,173.8588,267.9999,92.0833,1.4005e-05,7.4e-07,0.0,0 STARLINK-5337,1 55284U 23010R   24177.17641430  .00000074  00000-0  14005-4 0  9992,2 55284  69.9993 173.8588 0002855 267.9999  92.0833 14.98331471 79239,6950.188,96.107,574.038,570.069,0.0
55284.0,STARLINK-5337,PAYLOAD,2024-06-25 09:02:26,14.9833117,0.0002857,69.9994,173.354,268.11,91.9732,8.8162e-06,1.2e-07,0.0,0 STARLINK-5337,1 55284U 23010R   24177.37669439  .00000012  00000-0  88162-5 0  9991,2 55284  69.9994 173.3540 0002857 268.1100  91.9732 14.98331170 79560,6950.189,96.107,574.04,570.069,0.0
55284.0,STARLINK-5337,PAYLOAD,2024-06-26 04:16:03,14.98330026,0.0002778,69.9995,171.3346,263.6721,96.4122,1.6495e-05,1.04e-06,0.0,0 STARLINK-5337,1 55284U 23010R   24178.17781461  .00000104  00000-0  16495-4 0  9991,2 55284  69.9995 171.3346 0002778 263.6721  96.4122 14.98330026 79386,6950.193,96.107,573.989,570.127,0.0
55284.0,STARLINK-5337,PAYLOAD,2024-06-26 09:04:27,14.98330135,0.0002812,69.9994,170.8294,264.7207,95.3631,1.2551e-05,5.7e-07,0.0,0 STARLINK-5337,1 55284U 23010R   24178.37809466  .00000057  00000-0  12551-4 0  9995,2 55284  69.9994 170.8294 0002812 264.7207  95.3631 14.98330135 79712,6950.192,96.107,574.012,570.103,0.0
55284.0,STARLINK-5337,PAYLOAD,2024-06-27 04:18:03,14.98332146,0.0002912,69.9992,168.8096,267.316,92.7666,7.7641e-05,8.34e-06,0.0,0 STARLINK-5337,1 55284U 23010R   24179.17921197  .00000834  00000-0  77641-4 0  9994,2 55284  69.9992 168.8096 0002912 267.3160  92.7666 14.98332146 79538,6950.186,96.107,574.075,570.027,0.0
55284.0,STARLINK-5337,PAYLOAD,2024-06-27 17:07:08,14.98331932,0.0002919,69.9993,167.4621,270.4962,89.5863,7.5387e-05,8.07e-06,0.0,0 STARLINK-5337,1 55284U 23010R   24179.71329191  .00000807  00000-0  75387-4 0  9995,2 55284  69.9993 167.4621 0002919 270.4962  89.5863 14.98331932 79917,6950.187,96.107,574.081,570.023,0.0
55284.0,STARLINK-5337,PAYLOAD,2024-06-28 05:56:13,14.98330819,0.0002926,69.9992,166.1163,270.4544,89.628,6.7139e-05,7.08e-06,0.0,0 STARLINK-5337,1 55284U 23010R   24180.24737347  .00000708  00000-0  67139-4 0  9997,2 55284  69.9992 166.1163 0002926 270.4544  89.6280 14.98330819 79699,6950.19,96.107,574.089,570.022,0.0
55284.0,STARLINK-5337,PAYLOAD,2024-06-28 09:08:29,14.98331636,0.0002915,69.9992,165.7796,270.509,89.5735,7.4556e-05,7.97e-06,0.0,0 STARLINK-5337,1 55284U 23010R   24180.38089274  .00000797  00000-0  74556-4 0  9990,2 55284  69.9992 165.7796 0002915 270.5090  89.5735 14.98331636 80011,6950.188,96.107,574.079,570.027,0.0
55284.0,STARLINK-5337,PAYLOAD,2024-06-29 05:58:13,14.98340552,0.0002918,69.9993,163.5917,270.54,89.5424,0.00010567,1.168e-05,0.0,0 STARLINK-5337,1 55284U 23010R   24181.24876475  .00001168  00000-0  10567-3 0  9997,2 55284  69.9993 163.5917 0002918 270.5400  89.5424 14.98340552 79842,6950.16,96.106,574.053,569.997,0.0
55284.0,STARLINK-5337,PAYLOAD,2024-06-29 09:10:29,14.98342103,0.0002899,69.9993,163.2549,270.6453,89.4374,0.00012307,1.376e-05,0.0,0 STARLINK-5337,1 55284U 23010R   24181.38228278  .00001376  00000-0  12307-3 0  9999,2 55284  69.9993 163.2549 0002899 270.6453  89.4374 14.98342103 80161,6950.155,96.106,574.035,570.006,0.0
55284.0,STARLINK-5337,PAYLOAD,2024-06-29 15:35:01,14.98336715,0.0002827,69.9996,162.5816,270.809,89.2745,-8.3707e-06,-1.93e-06,0.0,0 STARLINK-5337,1 55284U 23010R   24181.64932823 -.00000193  00000-0 -83707-5 0  9998,2 55284  69.9996 162.5816 0002827 270.8090  89.2745 14.98336715 79905,6950.172,96.107,574.002,570.072,0.0
55284.0,STARLINK-5337,PAYLOAD,2024-06-30 02:47:58,14.98324649,0.0002905,70.0005,161.4059,267.1338,92.9488,7.7047e-05,8.26e-06,0.0,0 STARLINK-5337,1 55284U 23010R   24182.11665437  .00000826  00000-0  77047-4 0  9995,2 55284  70.0005 161.4059 0002905 267.1338  92.9488 14.98324649 79972,6950.209,96.107,574.093,570.055,0.0
55284.0,STARLINK-5337,PAYLOAD,2024-06-30 09:12:30,14.9831813,0.0002919,69.9996,160.7304,267.1059,92.9766,9.9439e-05,1.093e-05,0.0,0 STARLINK-5337,1 55284U 23010R   24182.38369073  .00001093  00000-0  99439-4 0  9997,2 55284  69.9996 160.7304 0002919 267.1059  92.9766 14.98318130 80315,6950.23,96.108,574.123,570.066,0.0
55284.0,STARLINK-5337,PAYLOAD,2024-06-30 15:37:03,14.98320852,0.0002972,69.9996,160.0573,268.4221,91.6598,0.0001329,1.493e-05,0.0,0 STARLINK-5337,1 55284U 23010R   24182.65073006  .00001493  00000-0  13290-3 0  9999,2 55284  69.9996 160.0573 0002972 268.4221  91.6598 14.98320852 80357,6950.221,96.108,574.152,570.021,0.0
55284.0,STARLINK-5337,PAYLOAD,2024-07-01 04:26:07,14.98326672,0.0003021,69.9995,158.7106,267.781,92.3003,0.0002026,2.325e-05,0.0,0 STARLINK-5337,1 55284U 23010R   24183.18480809  .00002325  00000-0  20260-3 0  9991,2 55284  69.9995 158.7106 0003021 267.7810  92.3003 14.98326672 80135,6950.203,96.107,574.168,569.969,0.0
55284.0,STARLINK-5337,PAYLOAD,2024-07-01 07:38:23,14.98328652,0.0003001,69.9996,158.3739,268.2981,91.7835,0.00022544,2.598e-05,0.0,0 STARLINK-5337,1 55284U 23010R   24183.31832746  .00002598  00000-0  22544-3 0  9996,2 55284  69.9996 158.3739 0003001 268.2981  91.7835 14.98328652 80458,6950.197,96.107,574.148,569.976,0.0
